OPS 9442 (DSCS 2-12) DEB
1 59989U 78113E   26073.07109199 -.00000184  00000+0  00000+0 0  9996
2 59989   8.3816 303.0875 0172336  83.1339 278.7732  0.98455310 44282
OPS 9442 (DSCS 2-12) DEB
1 59990U 78113F   26073.52278858 -.00000271  00000+0  00000+0 0  9994
2 59990   8.6092 303.0748 0151961 121.3354  63.6375  0.98218337 44162
OPS 9442 (DSCS 2-12) DEB
1 59991U 78113G   26046.83861711 -.00000006  00000+0  00000+0 0  9991
2 59991   8.3852 304.1665 0150144 138.9688  87.8602  0.98449699 42997
OPS 9442 (DSCS 2-12) DEB
1 59992U 78113H   26072.32799086 -.00000026  00000+0  00000+0 0  9992
2 59992   8.5613 303.5887 0227348  93.5615 107.3621  0.98332539 57945
VELA 11/12 INTERSTAGE   
1 60002U 70027D   26061.81683939 -.00000932  00000+0  00000+0 0  9999
2 60002  18.4546  34.8971 7958559 284.7422   0.0479  0.45892478 20499
ASTRA 1P (SES-24)       
1 60086U 24115A   26071.38933580  .00000120  00000+0  00000+0 0  9999
2 60086   0.0525 348.7446 0004591 336.6618   3.9688  1.00269354  6226
FALCON 9 R/B            
1 60087U 24115B   26073.85196038  .00001229  00000+0  37785-2 0  9997
2 60087  27.4402 295.7712 7970532  28.8762 358.1075  1.44129245  9090
GOES 19                 
1 60133U 24119A   26074.26669135 -.00000249  00000+0  00000+0 0  9991
2 60133   0.0272 311.4581 0001052  89.9025 152.3273  1.00271252  6021
ZHONGXING-3A            
1 60179U 24122A   26068.59684081 -.00000311  00000+0  00000+0 0  9991
2 60179   0.0034  91.8519 0002372 339.1453  52.6833  1.00269222  6318
TURKSAT 6A              
1 60233U 24127A   26074.23308681  .00000145  00000+0  00000+0 0  9998
2 60233   0.0369 212.5508 0001983 100.8254 345.3531  1.00272732  6079
FALCON 9 R/B            
1 60234U 24127B   26073.26267082 -.00000112  00000+0  53743-2 0  9990
2 60234  26.9966  22.7150 8347278 329.9942   1.4422  1.03922283  6109
YZ-1S R/B               
1 60326U 24048E   26070.26930114 -.00001290  00000+0  00000+0 0  9997
2 60326  17.2921 314.1444 8969376 229.1830 359.3704  0.47350856  3265
HULIANWAN GAOGUI-02 (H*)
1 60327U 24135A   26071.95865315 -.00000173  00000+0  00000+0 0  9991
2 60327   0.0414 351.2013 0007890 356.2626 321.4127  1.00270018  6531
ASBM-1                  
1 60422U 24143A   26068.78073502 -.00000051  00000+0  00000+0 0  9997
2 60422  62.7839  49.3612 5570463 269.1189  30.1968  1.50423764 10125
ASBM-2                  
1 60423U 24143B   26071.77302085 -.00000021  00000+0  00000+0 0  9999
2 60423  62.7544  49.3167 5567605 269.1785  30.1925  1.50423746 10156
ZHONGXING-4A            
1 60606U 24151A   26074.01977699 -.00000365  00000+0  00000+0 0  9991
2 60606   1.5594 271.8244 0001377 102.8911 283.2290  1.00270200  5814
HULIANWAN GAOGUI-03 (H*)
1 61503U 24181A   26072.79400200 -.00000241  00000+0  00000+0 0  9996
2 61503   0.0425 356.0104 0000703 104.1382 279.9753  1.00271087  5863
