[{"OBJECT_NAME":"OPS 9442 (DSCS 2-12) DEB","OBJECT_ID":"1978-113E","EPOCH":"2026-03-14T01:42:22.347936","MEAN_MOTION":0.9845531,"ECCENTRICITY":0.01723369,"INCLINATION":8.3816,"RA_OF_ASC_NODE":303.0875,"ARG_OF_PERICENTER":83.1339,"MEAN_ANOMALY":278.7732,"EPHEMERIS_TYPE":0,"CLASSIFICATION_TYPE":"U","NORAD_CAT_ID":59989,"ELEMENT_SET_NO":999,"REV_AT_EPOCH":4428,"BSTAR":0,"MEAN_MOTION_DOT":-1.84e-6,"MEAN_MOTION_DDOT":0},{"OBJECT_NAME":"OPS 9442 (DSCS 2-12) DEB","OBJECT_ID":"1978-113F","EPOCH":"2026-03-14T12:32:48.933312","MEAN_MOTION":0.98218337,"ECCENTRICITY":0.01519611,"INCLINATION":8.6092,"RA_OF_ASC_NODE":303.0748,"ARG_OF_PERICENTER":121.3354,"MEAN_ANOMALY":63.6375,"EPHEMERIS_TYPE":0,"CLASSIFICATION_TYPE":"U","NORAD_CAT_ID":59990,"ELEMENT_SET_NO":999,"REV_AT_EPOCH":4416,"BSTAR":0,"MEAN_MOTION_DOT":-2.71e-6,"MEAN_MOTION_DDOT":0},{"OBJECT_NAME":"OPS 9442 (DSCS 2-12) DEB","OBJECT_ID":"1978-113G","EPOCH":"2026-02-15T20:07:36.518304","MEAN_MOTION":0.98449699,"ECCENTRICITY":0.01501448,"INCLINATION":8.3852,"RA_OF_ASC_NODE":304.1665,"ARG_OF_PERICENTER":138.9688,"MEAN_ANOMALY":87.8602,"EPHEMERIS_TYPE":0,"CLASSIFICATION_TYPE":"U","NORAD_CAT_ID":59991,"ELEMENT_SET_NO":999,"REV_AT_EPOCH":4299,"BSTAR":0,"MEAN_MOTION_DOT":-6.0e-8,"MEAN_MOTION_DDOT":0},{"OBJECT_NAME":"OPS 9442 (DSCS 2-12) DEB","OBJECT_ID":"1978-113H","EPOCH":"2026-03-13T07:52:18.410304","MEAN_MOTION":0.98332539,"ECCENTRICITY":0.02273481,"INCLINATION":8.5613,"RA_OF_ASC_NODE":303.5887,"ARG_OF_PERICENTER":93.5615,"MEAN_ANOMALY":107.3621,"EPHEMERIS_TYPE":0,"CLASSIFICATION_TYPE":"U","NORAD_CAT_ID":59992,"ELEMENT_SET_NO":999,"REV_AT_EPOCH":5794,"BSTAR":0,"MEAN_MOTION_DOT":-2.6e-7,"MEAN_MOTION_DDOT":0},{"OBJECT_NAME":"VELA 11/12 INTERSTAGE","OBJECT_ID":"1970-027D","EPOCH":"2026-03-02T19:36:14.923296","MEAN_MOTION":0.45892478,"ECCENTRICITY":0.7958559,"INCLINATION":18.4546,"RA_OF_ASC_NODE":34.8971,"ARG_OF_PERICENTER":284.7422,"MEAN_ANOMALY":0.0479,"EPHEMERIS_TYPE":0,"CLASSIFICATION_TYPE":"U","NORAD_CAT_ID":60002,"ELEMENT_SET_NO":999,"REV_AT_EPOCH":2049,"BSTAR":0,"MEAN_MOTION_DOT":-9.32e-6,"MEAN_MOTION_DDOT":0},{"OBJECT_NAME":"ASTRA 1P (SES-24)","OBJECT_ID":"2024-115A","EPOCH":"2026-03-12T09:20:38.613120","MEAN_MOTION":1.00269354,"ECCENTRICITY":0.0004591,"INCLINATION":0.0525,"RA_OF_ASC_NODE":348.7446,"ARG_OF_PERICENTER":336.6618,"MEAN_ANOMALY":3.9688,"EPHEMERIS_TYPE":0,"CLASSIFICATION_TYPE":"U","NORAD_CAT_ID":60086,"ELEMENT_SET_NO":999,"REV_AT_EPOCH":622,"BSTAR":0,"MEAN_MOTION_DOT":1.2e-6,"MEAN_MOTION_DDOT":0},{"OBJECT_NAME":"FALCON 9 R/B","OBJECT_ID":"2024-115B","EPOCH":"2026-03-14T20:26:49.376832","MEAN_MOTION":1.44129245,"ECCENTRICITY":0.79705327,"INCLINATION":27.4402,"RA_OF_ASC_NODE":295.7712,"ARG_OF_PERICENTER":28.8762,"MEAN_ANOMALY":358.1075,"EPHEMERIS_TYPE":0,"CLASSIFICATION_TYPE":"U","NORAD_CAT_ID":60087,"ELEMENT_SET_NO":999,"REV_AT_EPOCH":909,"BSTAR":0.0037785402,"MEAN_MOTION_DOT":1.229e-5,"MEAN_MOTION_DDOT":0},{"OBJECT_NAME":"GOES 19","OBJECT_ID":"2024-119A","EPOCH":"2026-03-15T06:24:02.132640","MEAN_MOTION":1.00271252,"ECCENTRICITY":0.00010523,"INCLINATION":0.0272,"RA_OF_ASC_NODE":311.4581,"ARG_OF_PERICENTER":89.9025,"MEAN_ANOMALY":152.3273,"EPHEMERIS_TYPE":0,"CLASSIFICATION_TYPE":"U","NORAD_CAT_ID":60133,"ELEMENT_SET_NO":999,"REV_AT_EPOCH":602,"BSTAR":0,"MEAN_MOTION_DOT":-2.49e-6,"MEAN_MOTION_DDOT":0},{"OBJECT_NAME":"ZHONGXING-3A","OBJECT_ID":"2024-122A","EPOCH":"2026-03-09T14:19:27.045984","MEAN_MOTION":1.00269222,"ECCENTRICITY":0.0002372,"INCLINATION":0.0034,"RA_OF_ASC_NODE":91.8519,"ARG_OF_PERICENTER":339.1453,"MEAN_ANOMALY":52.6833,"EPHEMERIS_TYPE":0,"CLASSIFICATION_TYPE":"U","NORAD_CAT_ID":60179,"ELEMENT_SET_NO":999,"REV_AT_EPOCH":631,"BSTAR":0,"MEAN_MOTION_DOT":-3.11e-6,"MEAN_MOTION_DDOT":0},{"OBJECT_NAME":"TURKSAT 6A","OBJECT_ID":"2024-127A","EPOCH":"2026-03-15T05:35:38.700384","MEAN_MOTION":1.00272732,"ECCENTRICITY":0.0001983,"INCLINATION":0.0369,"RA_OF_ASC_NODE":212.5508,"ARG_OF_PERICENTER":100.8254,"MEAN_ANOMALY":345.3531,"EPHEMERIS_TYPE":0,"CLASSIFICATION_TYPE":"U","NORAD_CAT_ID":60233,"ELEMENT_SET_NO":999,"REV_AT_EPOCH":607,"BSTAR":0,"MEAN_MOTION_DOT":1.45e-6,"MEAN_MOTION_DDOT":0},{"OBJECT_NAME":"FALCON 9 R/B","OBJECT_ID":"2024-127B","EPOCH":"2026-03-14T06:18:14.758848","MEAN_MOTION":1.03922283,"ECCENTRICITY":0.83472783,"INCLINATION":26.9966,"RA_OF_ASC_NODE":22.715,"ARG_OF_PERICENTER":329.9942,"MEAN_ANOMALY":1.4422,"EPHEMERIS_TYPE":0,"CLASSIFICATION_TYPE":"U","NORAD_CAT_ID":60234,"ELEMENT_SET_NO":999,"REV_AT_EPOCH":610,"BSTAR":0.0053743056,"MEAN_MOTION_DOT":-1.12e-6,"MEAN_MOTION_DDOT":0},{"OBJECT_NAME":"YZ-1S R/B","OBJECT_ID":"2024-048E","EPOCH":"2026-03-11T06:27:47.618496","MEAN_MOTION":0.47350856,"ECCENTRICITY":0.89693763,"INCLINATION":17.2921,"RA_OF_ASC_NODE":314.1444,"ARG_OF_PERICENTER":229.183,"MEAN_ANOMALY":359.3704,"EPHEMERIS_TYPE":0,"CLASSIFICATION_TYPE":"U","NORAD_CAT_ID":60326,"ELEMENT_SET_NO":999,"REV_AT_EPOCH":326,"BSTAR":0,"MEAN_MOTION_DOT":-1.29e-5,"MEAN_MOTION_DDOT":0},{"OBJECT_NAME":"HULIANWAN GAOGUI-02 (HG-02)","OBJECT_ID":"2024-135A","EPOCH":"2026-03-12T23:00:27.632160","MEAN_MOTION":1.00270018,"ECCENTRICITY":0.00078907,"INCLINATION":0.0414,"RA_OF_ASC_NODE":351.2013,"ARG_OF_PERICENTER":356.2626,"MEAN_ANOMALY":321.4127,"EPHEMERIS_TYPE":0,"CLASSIFICATION_TYPE":"U","NORAD_CAT_ID":60327,"ELEMENT_SET_NO":999,"REV_AT_EPOCH":653,"BSTAR":0,"MEAN_MOTION_DOT":-1.73e-6,"MEAN_MOTION_DDOT":0},{"OBJECT_NAME":"ASBM-1","OBJECT_ID":"2024-143A","EPOCH":"2026-03-09T18:44:15.505728","MEAN_MOTION":1.50423764,"ECCENTRICITY":0.5570463,"INCLINATION":62.7839,"RA_OF_ASC_NODE":49.3612,"ARG_OF_PERICENTER":269.1189,"MEAN_ANOMALY":30.1968,"EPHEMERIS_TYPE":0,"CLASSIFICATION_TYPE":"U","NORAD_CAT_ID":60422,"ELEMENT_SET_NO":999,"REV_AT_EPOCH":1012,"BSTAR":0,"MEAN_MOTION_DOT":-5.1e-7,"MEAN_MOTION_DDOT":0},{"OBJECT_NAME":"ASBM-2","OBJECT_ID":"2024-143B","EPOCH":"2026-03-12T18:33:09.001440","MEAN_MOTION":1.50423746,"ECCENTRICITY":0.55676052,"INCLINATION":62.7544,"RA_OF_ASC_NODE":49.3167,"ARG_OF_PERICENTER":269.1785,"MEAN_ANOMALY":30.1925,"EPHEMERIS_TYPE":0,"CLASSIFICATION_TYPE":"U","NORAD_CAT_ID":60423,"ELEMENT_SET_NO":999,"REV_AT_EPOCH":1015,"BSTAR":0,"MEAN_MOTION_DOT":-2.1e-7,"MEAN_MOTION_DDOT":0},{"OBJECT_NAME":"ZHONGXING-4A","OBJECT_ID":"2024-151A","EPOCH":"2026-03-15T00:28:28.731936","MEAN_MOTION":1.002702,"ECCENTRICITY":0.00013774,"INCLINATION":1.5594,"RA_OF_ASC_NODE":271.8244,"ARG_OF_PERICENTER":102.8911,"MEAN_ANOMALY":283.229,"EPHEMERIS_TYPE":0,"CLASSIFICATION_TYPE":"U","NORAD_CAT_ID":60606,"ELEMENT_SET_NO":999,"REV_AT_EPOCH":581,"BSTAR":0,"MEAN_MOTION_DOT":-3.65e-6,"MEAN_MOTION_DDOT":0},{"OBJECT_NAME":"HULIANWAN GAOGUI-03 (HG-03)","OBJECT_ID":"2024-181A","EPOCH":"2026-03-13T19:03:21.772800","MEAN_MOTION":1.00271087,"ECCENTRICITY":7.031e-5,"INCLINATION":0.0425,"RA_OF_ASC_NODE":356.0104,"ARG_OF_PERICENTER":104.1382,"MEAN_ANOMALY":279.9753,"EPHEMERIS_TYPE":0,"CLASSIFICATION_TYPE":"U","NORAD_CAT_ID":61503,"ELEMENT_SET_NO":999,"REV_AT_EPOCH":586,"BSTAR":0,"MEAN_MOTION_DOT":-2.41e-6,"MEAN_MOTION_DDOT":0}]
